name,address,telephone,image,lon,lat
사브서울,서울특별시 강남구 논현로175길 6 B1<br><br> 지번 서울시 강남구 신사동 580-5 B1,02-512-4939,"https://mp-seoul-image-production-s3.mangoplate.com/2196417_1649124497884742.jpg?fit=around|512:512&crop=512:512;*,*&output-format=jpg&output-quality=80",127.0279224,37.52636708
제스트,서울특별시 강남구 도산대로55길 26 하늘빌딩 1F<br><br> 지번 서울시 강남구 청담동 88-1 하늘빌딩 1F,010-3177-8801,"https://mp-seoul-image-production-s3.mangoplate.com/1047892_1635373424034393.jpg?fit=around|512:512&crop=512:512;*,*&output-format=jpg&output-quality=80",127.0407905,37.52522789
PDR,서울특별시 강남구 언주로134길 24 2F<br><br> 지번 서울시 강남구 논현동 116-1 2F,02-3444-8880,"https://mp-seoul-image-production-s3.mangoplate.com/427448/172778_1626153764162_105705?fit=around|512:512&crop=512:512;*,*&output-format=jpg&output-quality=80",127.0375917,37.51678935
피아마,서울특별시 강남구 도산대로70길 9 2F<br><br> 지번 서울시 강남구 청담동 13 2F,0507-1307-5434,"https://mp-seoul-image-production-s3.mangoplate.com/486805/1100616_1654527236870_40737?fit=around|512:512&crop=512:512;*,*&output-format=jpg&output-quality=80",127.0452468,37.52305395
화이트와인개러지,서울특별시 강남구 삼성로149길 7 B1<br><br> 지번 서울시 강남구 청담동 12-15 B1,02-540-7560,"https://mp-seoul-image-production-s3.mangoplate.com/872233_1624526933728285.jpg?fit=around|512:512&crop=512:512;*,*&output-format=jpg&output-quality=80",127.04693,37.52322025
파인앤코,서울특별시 강남구 선릉로157길 33 B1<br><br> 지번 서울시 강남구 신사동 657 B1,0507-1335-7434,"https://mp-seoul-image-production-s3.mangoplate.com/1789241_1632494618690449.jpg?fit=around|512:512&crop=512:512;*,*&output-format=jpg&output-quality=80",127.0370523,37.52629429
임바이브,서울특별시 강남구 강남대로124길 3-9 B1<br><br> 지번 서울시 강남구 논현동 143-9 B1,02-6951-2880,"https://mp-seoul-image-production-s3.mangoplate.com/479674_1574939194465002.jpg?fit=around|512:512&crop=512:512;*,*&output-format=jpg&output-quality=80",127.0228268,37.50931416
리커테이션,서울특별시 강남구 압구정로10길 13 마사빌딩 B1<br><br> 지번 서울시 강남구 신사동 532-4 마사빌딩 B1,02-6339-5337,"https://mp-seoul-image-production-s3.mangoplate.com/158567_1556275370307233.jpg?fit=around|512:512&crop=512:512;*,*&output-format=jpg&output-quality=80",127.0220568,37.5226433
유희,서울특별시 강남구 도산대로11길 31-8 B1<br><br> 지번 서울시 강남구 신사동 518-14 B1,02-6014-9808,"https://mp-seoul-image-production-s3.mangoplate.com/716698_1670168770196085.jpg?fit=around|512:512&crop=512:512;*,*&output-format=jpg&output-quality=80",127.0217604,37.51938074
로비라운지바,서울특별시 강남구 테헤란로 521 그랜드인터컨티넨탈 서울 파르나스 1F<br><br> 지번 서울시 강남구 삼성동 159-8 그랜드인터컨티넨탈 서울 파르나스 1F,02-559-7603,"https://mp-seoul-image-production-s3.mangoplate.com/1592769_1580093661010956.jpg?fit=around|512:512&crop=512:512;*,*&output-format=jpg&output-quality=80",127.0608069,37.50919169
복싱타이거,서울특별시 강남구 강남대로156길 13 B1<br><br> 지번 서울시 강남구 신사동 510-3 B1,02-540-2399,"https://mp-seoul-image-production-s3.mangoplate.com/1789241_1631753208375621.jpg?fit=around|512:512&crop=512:512;*,*&output-format=jpg&output-quality=80",127.020241,37.51823718
획,서울특별시 강남구 강남대로156길 31<br><br> 지번 서울시 강남구 신사동 517-10,0507-1382-8332,"https://mp-seoul-image-production-s3.mangoplate.com/1743214_1638239238728447.jpg?fit=around|512:512&crop=512:512;*,*&output-format=jpg&output-quality=80",127.0215899,37.51880674
작,서울특별시 강남구 논현로95길 14 1F<br><br> 지번 서울시 강남구 역삼동 640-11 1F,02-501-2342,"https://mp-seoul-image-production-s3.mangoplate.com/585014_1536152409081440.jpg?fit=around|512:512&crop=512:512;*,*&output-format=jpg&output-quality=80",127.0346464,37.50237859
장생건강원,서울특별시 강남구 강남대로124길 23<br><br> 지번 서울시 강남구 논현동 145-12,070-7543-1077,"https://mp-seoul-image-production-s3.mangoplate.com/389883/449685_1600725704828_6115?fit=around|512:512&crop=512:512;*,*&output-format=jpg&output-quality=80",127.024509,37.50937518
르챔버,서울특별시 강남구 도산대로55길 42 B1<br><br> 지번 서울시 강남구 청담동 83-4 B1,02-6337-2014,"https://mp-seoul-image-production-s3.mangoplate.com/added_restaurants/36223_1468173699979936.jpg?fit=around|512:512&crop=512:512;*,*&output-format=jpg&output-quality=80",127.0411279,37.52625555
심퍼티쿠시,서울특별시 강남구 강남대로154길 16 1F 101호<br><br> 지번 서울시 강남구 신사동 512-3 1F 101호,070-7661-2017,"https://mp-seoul-image-production-s3.mangoplate.com/26135_1608203299685982.jpg?fit=around|512:512&crop=512:512;*,*&output-format=jpg&output-quality=80",127.0205668,37.51761489
커피 바 K,서울특별시 강남구 언주로 517<br><br> 지번 서울시 강남구 역삼동 675-3,02-516-1970,"https://mp-seoul-image-production-s3.mangoplate.com/514/172778_1613801435628_81272?fit=around|512:512&crop=512:512;*,*&output-format=jpg&output-quality=80",127.0415199,37.50433183
와인웍스,서울특별시 강남구 압구정로 165 압구정 현대백화점 본점 B1<br><br> 지번 서울시 강남구 압구정동 429 압구정 현대백화점 본점 B1,02-3449-5490,"https://mp-seoul-image-production-s3.mangoplate.com/1379285_1587227447395381.jpg?fit=around|512:512&crop=512:512;*,*&output-format=jpg&output-quality=80",127.0274685,37.52736612
봉쥬르와인살롱,서울특별시 강남구 강남대로122길 5 유창빌딩<br><br> 지번 서울시 강남구 논현동 164-12 유창빌딩,02-547-2001,"https://mp-seoul-image-production-s3.mangoplate.com/398865/840737_1565130304248_435511?fit=around|512:512&crop=512:512;*,*&output-format=jpg&output-quality=80",127.0237322,37.50766469
와인소셜,서울특별시 강남구 압구정로46길 71-1 2F<br><br> 지번 서울시 강남구 신사동 648-23 2F,0507-1445-0604,"https://mp-seoul-image-production-s3.mangoplate.com/1296730_1647445260670511.jpg?fit=around|512:512&crop=512:512;*,*&output-format=jpg&output-quality=80",127.0368191,37.52410537
폴스타,서울특별시 강남구 도산대로45길 10-11<br><br> 지번 서울시 강남구 신사동 648-14,02-514-3450,"https://mp-seoul-image-production-s3.mangoplate.com/278041/230933_1483800780611_51015?fit=around|512:512&crop=512:512;*,*&output-format=jpg&output-quality=80",127.0368811,37.52355043
하이볼가든,서울특별시 강남구 논현로161길 39<br><br> 지번 서울시 강남구 신사동 552-3,070-8886-4636,"https://mp-seoul-image-production-s3.mangoplate.com/856498_1615443902525773.jpg?fit=around|512:512&crop=512:512;*,*&output-format=jpg&output-quality=80",127.0249701,37.52289014
바챕터원,서울특별시 강남구 논현로175길 101<br><br> 지번 서울시 강남구 신사동 525-19,02-543-0308,"https://mp-seoul-image-production-s3.mangoplate.com/321425/777189_1494139020928_34051?fit=around|512:512&crop=512:512;*,*&output-format=jpg&output-quality=80",127.0211614,37.52268113
Tea and Proof,서울특별시 강남구 양재천로 181<br><br> 지번 서울시 강남구 도곡동 454,000-0000-0000,"https://mp-seoul-image-production-s3.mangoplate.com/sources/web/restaurants/387129/894765_1621165102698?fit=around|512:512&crop=512:512;*,*&output-format=jpg&output-quality=80",127.0457579,37.48233506
트웰브,서울특별시 강남구 압구정로72길 26 B1<br><br> 지번 서울시 강남구 청담동 95-16 B1,02-548-1201,"https://mp-seoul-image-production-s3.mangoplate.com/added_restaurants/63176_1460723956278258.jpg?fit=around|512:512&crop=512:512;*,*&output-format=jpg&output-quality=80",127.0449956,37.5248547
루팡,서울특별시 강남구 선릉로160길 5<br><br> 지번 서울시 강남구 청담동 84-18,02-511-8418,"https://mp-seoul-image-production-s3.mangoplate.com/662924_1518330852553954.jpg?fit=around|512:512&crop=512:512;*,*&output-format=jpg&output-quality=80",127.0407721,37.52641749
셰막,서울특별시 강남구 강남대로 442 2F<br><br> 지번 서울시 강남구 역삼동 814-5 2F,02-3452-7077,"https://mp-seoul-image-production-s3.mangoplate.com/1272306_1606398292267433.jpg?fit=around|512:512&crop=512:512;*,*&output-format=jpg&output-quality=80",127.0260558,37.50206283
레커,서울특별시 강남구 선릉로146길 27-10 1F<br><br> 지번 서울시 강남구 청담동 20-2 1F,02-543-4707,"https://mp-seoul-image-production-s3.mangoplate.com/1128283_1535605868810886.jpg?fit=around|512:512&crop=512:512;*,*&output-format=jpg&output-quality=80",127.042347,37.52241162
Bar서랍,서울특별시 강남구 압구정로34길 24 2F<br><br> 지번 서울시 강남구 신사동 613-9 2F,02-548-3484,"https://mp-seoul-image-production-s3.mangoplate.com/40495_1641421874314104.jpg?fit=around|512:512&crop=512:512;*,*&output-format=jpg&output-quality=80",127.0305916,37.52657428
벨뷰,서울특별시 강남구 선릉로152길 30 1F<br><br> 지번 서울시 강남구 청담동 91-3 1F,010-7394-8388,"https://mp-seoul-image-production-s3.mangoplate.com/341011/940132_1517899969186_5714?fit=around|512:512&crop=512:512;*,*&output-format=jpg&output-quality=80",127.0419206,37.5241772
루프탑클라우드,서울특별시 강남구 테헤란로25길 10 21F<br><br> 지번 서울시 강남구 역삼동 642 21F,02-2050-6035,"https://mp-seoul-image-production-s3.mangoplate.com/302708_1581933288095449.jpg?fit=around|512:512&crop=512:512;*,*&output-format=jpg&output-quality=80",127.0354244,37.50124165
몰트바배럴,서울특별시 강남구 삼성로104길 10 이호빌딩 2F<br><br> 지번 서울시 강남구 삼성동 151-29 이호빌딩 2F,02-568-2589,"https://mp-seoul-image-production-s3.mangoplate.com/254930/ldqovsg8zsbvgu.jpg?fit=around|512:512&crop=512:512;*,*&output-format=jpg&output-quality=80",127.055491,37.51074962
Bar Tea Scent,서울특별시 강남구 선릉로162길 16 엘리자벳빌딩<br><br> 지번 서울시 강남구 청담동 83-12 엘리자벳빌딩,02-6052-6579,"https://mp-seoul-image-production-s3.mangoplate.com/397253/2221540_1667542915209_26395?fit=around|512:512&crop=512:512;*,*&output-format=jpg&output-quality=80",127.0416917,37.52670801
1914라운지바,서울특별시 강남구 테헤란로 231 조선팰리스 서울강남 F24<br><br> 지번 서울시 강남구 역삼동 676 조선팰리스 서울강남 F24,02-727-7640,"https://mp-seoul-image-production-s3.mangoplate.com/886722_1651035022090550.jpg?fit=around|512:512&crop=512:512;*,*&output-format=jpg&output-quality=80",127.0413565,37.50288135
겟올라잇,서울특별시 강남구 도산대로57길 18<br><br> 지번 서울시 강남구 청담동 89-5,02-547-0895,"https://mp-seoul-image-production-s3.mangoplate.com/54303_1500135025505638.jpg?fit=around|512:512&crop=512:512;*,*&output-format=jpg&output-quality=80",127.0416041,37.52472007
와인쉬어리,서울특별시 강남구 논현로36길 23 1F<br><br> 지번 서울시 강남구 도곡동 416-10 1F,02-6012-1382,"https://mp-seoul-image-production-s3.mangoplate.com/2925_1672138624598119.jpg?fit=around|512:512&crop=512:512;*,*&output-format=jpg&output-quality=80",127.0437463,37.48512453
도라지위스키,서울특별시 강남구 선릉로155길 11 B1<br><br> 지번 서울시 강남구 신사동 655-5 B1,070-8844-8825,"https://mp-seoul-image-production-s3.mangoplate.com/777980_1596858630792431.jpg?fit=around|512:512&crop=512:512;*,*&output-format=jpg&output-quality=80",127.0387428,37.52530219
동남방앗간,서울특별시 강남구 언주로154길 16 B1<br><br> 지번 서울시 강남구 신사동 631-25 B1,02-511-1224,"https://mp-seoul-image-production-s3.mangoplate.com/1354273_1559966025914765.jpg?fit=around|512:512&crop=512:512;*,*&output-format=jpg&output-quality=80",127.0346483,37.52328441
카이포라,서울특별시 강남구 도산대로55길 45 B1<br><br> 지번 서울시 강남구 청담동 84-24 B1,02-544-4389,"https://mp-seoul-image-production-s3.mangoplate.com/765226_1676947708382323.jpg?fit=around|512:512&crop=512:512;*,*&output-format=jpg&output-quality=80",127.0409061,37.52658926
먼데이블루스,서울특별시 서초구 강남대로53길 11 서초동삼성쉐르빌2 1F<br><br> 지번 서울시 서초구 서초동 1330 서초동삼성쉐르빌2 1F,02-521-0542,"https://mp-seoul-image-production-s3.mangoplate.com/218739/197534_144204338631011791?fit=around|512:512&crop=512:512;*,*&output-format=jpg&output-quality=80",127.0279164,37.49396164
스틸,서울특별시 강남구 선릉로152길 7 홍경빌딩 B1<br><br> 지번 서울시 강남구 청담동 85-7 홍경빌딩 B1,02-547-2016,"https://mp-seoul-image-production-s3.mangoplate.com/added_restaurants/433864_1449033171497.jpg?fit=around|512:512&crop=512:512;*,*&output-format=jpg&output-quality=80",127.0401667,37.52423601
미스터칠드런바,서울특별시 강남구 도산대로55길 43<br><br> 지번 서울시 강남구 청담동 84-25,02-545-8425,"https://mp-seoul-image-production-s3.mangoplate.com/259345/230933_1478269978017_39617?fit=around|512:512&crop=512:512;*,*&output-format=jpg&output-quality=80",127.0408688,37.5265017
앨리스,서울특별시 강남구 도산대로55길 47<br><br> 지번 서울시 강남구 청담동 84-20,02-511-8420,"https://mp-seoul-image-production-s3.mangoplate.com/550856_1534691851920501.jpg?fit=around|512:512&crop=512:512;*,*&output-format=jpg&output-quality=80",127.0409437,37.52667755
르캬바레도산,서울특별시 강남구 도산대로 216 청담에이든호텔 18F<br><br> 지번 서울시 강남구 논현동 60-8 청담에이든호텔 18F,02-6713-6730,"https://mp-seoul-image-production-s3.mangoplate.com/596640_1561011424158251.jpg?fit=around|512:512&crop=512:512;*,*&output-format=jpg&output-quality=80",127.0304791,37.51998374
와인웍스,서울특별시 강남구 테헤란로 517 현대백화점무역센터점<br><br> 지번 서울시 강남구 삼성동 159-7 현대백화점무역센터점,02-3467-6065,"https://mp-seoul-image-production-s3.mangoplate.com/450387/172778_1628320637418_107862?fit=around|512:512&crop=512:512;*,*&output-format=jpg&output-quality=80",127.0597651,37.50861513
어글리,서울특별시 강남구 강남대로96길 5 5F<br><br> 지번 서울시 강남구 역삼동 816-4 5F,02-501-4222,"https://mp-seoul-image-production-s3.mangoplate.com/358081/2314302_1666464954259_1000000216?fit=around|512:512&crop=512:512;*,*&output-format=jpg&output-quality=80",127.0274572,37.49982117
메리가든,서울특별시 강남구 봉은사로 113 호텔 더 디자이너스 리즈<br><br> 지번 서울시 강남구 논현동 201-11 호텔 더 디자이너스 리즈,02-517-9702,"https://mp-seoul-image-production-s3.mangoplate.com/618033_1509761540588583.jpg?fit=around|512:512&crop=512:512;*,*&output-format=jpg&output-quality=80",127.0258786,37.50526667
마녀주방,서울특별시 강남구 강남대로94길 9<br><br> 지번 서울시 강남구 역삼동 818-14,070-4240-1116,"https://mp-seoul-image-production-s3.mangoplate.com/188568/reviews/a419511b045f.jpg?fit=around|512:512&crop=512:512;*,*&output-format=jpg&output-quality=80",127.0280969,37.49948395
파복스,서울특별시 강남구 테헤란로1길 26<br><br> 지번 서울시 강남구 역삼동 817-10,02-3452-3489,"https://mp-seoul-image-production-s3.mangoplate.com/664/242283_1443539004791839583?fit=around|512:512&crop=512:512;*,*&output-format=jpg&output-quality=80",127.0276643,37.50002124
플랫나인,서울특별시 서초구 강남대로65길 10 5F<br><br> 지번 서울시 서초구 서초동 1308-15 5F,02-532-9630,"https://mp-seoul-image-production-s3.mangoplate.com/429590/1575751_1670541219448_49218?fit=around|512:512&crop=512:512;*,*&output-format=jpg&output-quality=80",127.024952,37.50049298
데노체,서울특별시 강남구 압구정로2길 46 1F<br><br> 지번 서울시 강남구 신사동 510-11 1F,02-545-4005,"https://mp-seoul-image-production-s3.mangoplate.com/359571/1575751_1673802638145_50273?fit=around|512:512&crop=512:512;*,*&output-format=jpg&output-quality=80",127.0206916,37.51876726
오늘와인한잔,서울특별시 강남구 강남대로96길 11-4 B1<br><br> 지번 서울시 강남구 역삼동 817-16 B1,02-555-0535,"https://mp-seoul-image-production-s3.mangoplate.com/1959785_1674835780253594.jpg?fit=around|512:512&crop=512:512;*,*&output-format=jpg&output-quality=80",127.0280549,37.50010449
컬렉션라운지,서울특별시 강남구 압구정로10길 33<br><br> 지번 서울시 강남구 신사동 534,070-4229-0050,"https://mp-seoul-image-production-s3.mangoplate.com/added_restaurants/61216_1460534103322133.jpg?fit=around|512:512&crop=512:512;*,*&output-format=jpg&output-quality=80",127.0221963,37.52145738
아브라소812,서울특별시 강남구 봉은사로4길 29 B1<br><br> 지번 서울시 강남구 역삼동 812 B1,070-8810-0812,"https://mp-seoul-image-production-s3.mangoplate.com/16638_1422636895934?fit=around|512:512&crop=512:512;*,*&output-format=jpg&output-quality=80",127.0268617,37.50297717
와인코르크,서울특별시 강남구 테헤란로1길 28-9<br><br> 지번 서울시 강남구 역삼동 817-30,02-501-6335,"https://mp-seoul-image-production-s3.mangoplate.com/added_restaurants/365650_145541309019546.jpg?fit=around|512:512&crop=512:512;*,*&output-format=jpg&output-quality=80",127.0280794,37.50049885
월매네주막,서울특별시 서초구 강남대로 437 1F<br><br> 지번 서울시 서초구 서초동 1305-3 1F,02-537-6684,"https://mp-seoul-image-production-s3.mangoplate.com/77183/reviews/a3b46561d3a9.jpg?fit=around|512:512&crop=512:512;*,*&output-format=jpg&output-quality=80",127.0255112,37.50136341
고센,서울특별시 강남구 선릉로158길 18<br><br> 지번 서울시 강남구 청담동 88-23,02-515-1863,"https://mp-seoul-image-production-s3.mangoplate.com/1121/2.jpg?fit=around|512:512&crop=512:512;*,*&output-format=jpg&output-quality=80",127.0414324,37.52521046
엘세뇨르둘세,서울특별시 강남구 도산대로101길 22<br><br> 지번 서울시 강남구 청담동 128-6,02-516-6157,"https://mp-seoul-image-production-s3.mangoplate.com/added_restaurants/247128_145549738078784.jpg?fit=around|512:512&crop=512:512;*,*&output-format=jpg&output-quality=80",127.052977,37.52628389
카페슬로우,서울특별시 서초구 서초대로77길 35 1F<br><br> 지번 서울시 서초구 서초동 1308-12 1F,02-3482-0111,"https://mp-seoul-image-production-s3.mangoplate.com/13557/47750_1420045487967?fit=around|512:512&crop=512:512;*,*&output-format=jpg&output-quality=80",127.0252737,37.500847
아실라,서울특별시 강남구 강남대로98길 16 파빌리온빌딩 B1<br><br> 지번 서울시 강남구 역삼동 817-35 파빌리온빌딩 B1,02-508-4665,"https://mp-seoul-image-production-s3.mangoplate.com/50829/470644_1477477944073_69319?fit=around|512:512&crop=512:512;*,*&output-format=jpg&output-quality=80",127.0279792,37.50073944
화이트바,서울특별시 강남구 압구정로80길 30 삼도빌딩 B1<br><br> 지번 서울시 강남구 청담동 93-14 삼도빌딩 B1,02-6207-7429,"https://mp-seoul-image-production-s3.mangoplate.com/added_restaurants/1427_1482949976701912.jpg?fit=around|512:512&crop=512:512;*,*&output-format=jpg&output-quality=80",127.0443298,37.52479981
더라이온스덴,서울특별시 강남구 선릉로158길 7<br><br> 지번 서울시 강남구 청담동 84-11,02-512-1136,"https://mp-seoul-image-production-s3.mangoplate.com/190219/449685_1591152143616_1591151886395.jpg?fit=around|512:512&crop=512:512;*,*&output-format=jpg&output-quality=80",127.0406882,37.52570834
문온더씨,서울특별시 강남구 삼성로82길 19 B1<br><br> 지번 서울시 강남구 대치동 956-28 B1,02-501-0111,"https://mp-seoul-image-production-s3.mangoplate.com/670644_1624616370998207.jpg?fit=around|512:512&crop=512:512;*,*&output-format=jpg&output-quality=80",127.0592319,37.50542881
바 밀라,서울특별시 강남구 삼성로149길 13 2F<br><br> 지번 서울시 강남구 청담동 12-12 2F,02-544-4761,"https://mp-seoul-image-production-s3.mangoplate.com/2337483_1665705676149857.jpg?fit=around|512:512&crop=512:512;*,*&output-format=jpg&output-quality=80",127.0465302,37.52319842
볼트82,서울특별시 강남구 압구정로72길 22<br><br> 지번 서울시 강남구 청담동 95-15,02-544-9234,"https://mp-seoul-image-production-s3.mangoplate.com/196606/449685_1600726338468_8403?fit=around|512:512&crop=512:512;*,*&output-format=jpg&output-quality=80",127.044974,37.52500653
호사,서울특별시 강남구 선릉로148길 39<br><br> 지번 서울시 강남구 청담동 3-15,02-545-9259,"https://mp-seoul-image-production-s3.mangoplate.com/1476505_1649054752789882.jpg?fit=around|512:512&crop=512:512;*,*&output-format=jpg&output-quality=80",127.0426943,37.52290299
페타테,서울특별시 강남구 압구정로14길 32 2F<br><br> 지번 서울시 강남구 신사동 546-20 2F,02-516-3342,"https://mp-seoul-image-production-s3.mangoplate.com/added_restaurants/1427_1447891039211.jpg?fit=around|512:512&crop=512:512;*,*&output-format=jpg&output-quality=80",127.0232943,37.52225942
크르크르,서울특별시 강남구 압구정로42길 25-10 5F<br><br> 지번 서울시 강남구 신사동 643-20 5F,070-7738-3249,"https://mp-seoul-image-production-s3.mangoplate.com/460882/172778_1650609335030_145275?fit=around|512:512&crop=512:512;*,*&output-format=jpg&output-quality=80",127.0357934,37.52699656
사이드웨이,서울특별시 강남구 강남대로98길 28<br><br> 지번 서울시 강남구 역삼동 817-38,02-555-9925,"https://mp-seoul-image-production-s3.mangoplate.com/1261/70608_1429088775031199791997219971199781997419973199751997619977?fit=around|512:512&crop=512:512;*,*&output-format=jpg&output-quality=80",127.0286647,37.50086407
화빙장,서울특별시 강남구 압구정로50길 8<br><br> 지번 서울시 강남구 신사동 660-10,02-540-2999,"https://mp-seoul-image-production-s3.mangoplate.com/447128/752493_1637681648958_48359?fit=around|512:512&crop=512:512;*,*&output-format=jpg&output-quality=80",127.0380315,37.52778937
루프탑바,서울특별시 강남구 봉은사로 155 호텔 카푸치노 17F<br><br> 지번 서울시 강남구 논현동 206-1 호텔 카푸치노 17F,02-2038-9618,"https://mp-seoul-image-production-s3.mangoplate.com/added_restaurants/63176_1451209269575.jpg?fit=around|512:512&crop=512:512;*,*&output-format=jpg&output-quality=80",127.0314963,37.50690009
노마드,서울특별시 강남구 도산대로101길 28<br><br> 지번 서울시 강남구 청담동 128-3,02-511-1283,"https://mp-seoul-image-production-s3.mangoplate.com/190193/37747_143705250768722466?fit=around|512:512&crop=512:512;*,*&output-format=jpg&output-quality=80",127.053461,37.52653884
레솔베르,서울특별시 강남구 도산대로57길 13-4 2F<br><br> 지번 서울시 강남구 청담동 88-29 2F,010-2969-9154,"https://mp-seoul-image-production-s3.mangoplate.com/503366_1619454531208955.jpg?fit=around|512:512&crop=512:512;*,*&output-format=jpg&output-quality=80",127.0409914,37.52470443
삼성리,서울특별시 강남구 봉은사로86길 28<br><br> 지번 서울시 강남구 삼성동 148-10,02-6401-0200,"https://mp-seoul-image-production-s3.mangoplate.com/2177554_1644320176585992.jpg?fit=around|512:512&crop=512:512;*,*&output-format=jpg&output-quality=80",127.0567627,37.51159155
타로맨스,서울특별시 강남구 도곡로11길 10<br><br> 지번 서울시 강남구 역삼동 835-33,010-4983-9410,"https://mp-seoul-image-production-s3.mangoplate.com/380621/1656652_1677935612380_1000022828?fit=around|512:512&crop=512:512;*,*&output-format=jpg&output-quality=80",127.0357693,37.49155221
모드라운지,서울특별시 서초구 서초대로77길 37 월드상가 10F<br><br> 지번 서울시 서초구 서초동 1308-10 월드상가 10F,0507-1365-8923,"https://mp-seoul-image-production-s3.mangoplate.com/2194081_1646029506629166.jpg?fit=around|512:512&crop=512:512;*,*&output-format=jpg&output-quality=80",127.0251043,37.50099462
청담대패당,서울특별시 강남구 도산대로 420 청담스퀘어 타워빌딩 320호<br><br> 지번 서울시 강남구 청담동 3 청담스퀘어 타워빌딩 320호,02-6480-8989,"https://mp-seoul-image-production-s3.mangoplate.com/27066_1677421418306829.jpg?fit=around|512:512&crop=512:512;*,*&output-format=jpg&output-quality=80",127.0421951,37.52305391
서울러,서울특별시 강남구 강남대로152길 69 B1<br><br> 지번 서울시 강남구 신사동 540-18 B1,010-9929-6199,"https://mp-seoul-image-production-s3.mangoplate.com/1937806_1667214863527164.jpg?fit=around|512:512&crop=512:512;*,*&output-format=jpg&output-quality=80",127.0247332,37.51912445
바인하우스,서울특별시 강남구 도산대로89길 13 B1<br><br> 지번 서울시 강남구 청담동 123-53 B1,070-4231-6616,"https://mp-seoul-image-production-s3.mangoplate.com/73048/2221540_1670235701536_1000003314?fit=around|512:512&crop=512:512;*,*&output-format=jpg&output-quality=80",127.0507516,37.52555199
오르빗,서울특별시 강남구 선릉로157길 13 B1<br><br> 지번 서울시 강남구 신사동 657-36 B1,02-548-3828,"https://mp-seoul-image-production-s3.mangoplate.com/1789241_1665386166046364.jpg?fit=around|512:512&crop=512:512;*,*&output-format=jpg&output-quality=80",127.03875,37.52592604
루베크,서울특별시 서초구 서초대로73길 50 대원빌딩 4F<br><br> 지번 서울시 서초구 서초동 1309-5 대원빌딩 4F,02-594-1016,"https://mp-seoul-image-production-s3.mangoplate.com/901972_1512208612606718.jpg?fit=around|512:512&crop=512:512;*,*&output-format=jpg&output-quality=80",127.0240184,37.50168601
압구정의 하루일과,서울특별시 강남구 압구정로29길 71 현대상가 2동 1F<br><br> 지번 서울시 강남구 압구정동 369-1 현대상가 2동 1F,02-547-6611,"https://mp-seoul-image-production-s3.mangoplate.com/1476505_1643032564024667.jpg?fit=around|512:512&crop=512:512;*,*&output-format=jpg&output-quality=80",127.0283258,37.53360328
더미트,서울특별시 강남구 봉은사로2길 19<br><br> 지번 서울시 강남구 역삼동 810-4,02-557-1122,"https://mp-seoul-image-production-s3.mangoplate.com/188418_1426855358103?fit=around|512:512&crop=512:512;*,*&output-format=jpg&output-quality=80",127.0261642,37.50357884
헬로우,서울특별시 강남구 논현로151길 55 호경빌딩 B1<br><br> 지번 서울시 강남구 신사동 541-2 호경빌딩 B1,02-541-4427,"https://mp-seoul-image-production-s3.mangoplate.com/48/reviews/32222594d199.jpg?fit=around|512:512&crop=512:512;*,*&output-format=jpg&output-quality=80",127.0236671,37.51950119
콜마인,서울특별시 강남구 압구정로50길 5-12 B1<br><br> 지번 서울시 강남구 신사동 661-10 B1,070-8623-9779,"https://mp-seoul-image-production-s3.mangoplate.com/2199903_1646640011208857.jpg?fit=around|512:512&crop=512:512;*,*&output-format=jpg&output-quality=80",127.0393215,37.52759361
멜랑즈,서울특별시 강남구 도산대로50길 16 2F<br><br> 지번 서울시 강남구 논현동 96-11 2F,02-512-5980,"https://mp-seoul-image-production-s3.mangoplate.com/641043_1613123471124129.jpg?fit=around|512:512&crop=512:512;*,*&output-format=jpg&output-quality=80",127.0373964,37.52137588
게스후,서울특별시 강남구 논현로 819 MK빌딩 B1<br><br> 지번 서울시 강남구 신사동 586 MK빌딩 B1,02-547-9063,"https://mp-seoul-image-production-s3.mangoplate.com/93136/453121_1451650088162_311318?fit=around|512:512&crop=512:512;*,*&output-format=jpg&output-quality=80",127.0278755,37.52163205
판치야,서울특별시 강남구 학동로53길 29 대림빌딩<br><br> 지번 서울시 강남구 논현동 109-26 대림빌딩,010-4349-3323,"https://mp-seoul-image-production-s3.mangoplate.com/365910/743008_1607175905516_35430?fit=around|512:512&crop=512:512;*,*&output-format=jpg&output-quality=80",127.0395421,37.51899121
영화와인셀러,서울특별시 강남구 언주로93길 32-6<br><br> 지번 서울시 강남구 역삼동 672-33,02-553-7233,"https://mp-seoul-image-production-s3.mangoplate.com/1476505_1657600563757061.jpg?fit=around|512:512&crop=512:512;*,*&output-format=jpg&output-quality=80",127.0393363,37.50363096
제이앤제이슨,서울특별시 강남구 도산대로49길 31 B1<br><br> 지번 서울시 강남구 신사동 647-14 B1,010-7430-7053,"https://mp-seoul-image-production-s3.mangoplate.com/321182/op-j7pg50d0ume.jpg?fit=around|512:512&crop=512:512;*,*&output-format=jpg&output-quality=80",127.0369097,37.52501446
펄쉘프리미에,서울특별시 강남구 압구정로42길 49 B1<br><br> 지번 서울시 강남구 신사동 645-28 B1,02-3446-0916,"https://mp-seoul-image-production-s3.mangoplate.com/338150_1669556612105178.jpg?fit=around|512:512&crop=512:512;*,*&output-format=jpg&output-quality=80",127.0345376,37.52564272
크레이지와인바,서울특별시 강남구 도산대로51길 41 2F<br><br> 지번 서울시 강남구 신사동 657-21 2F,02-516-9994,"https://mp-seoul-image-production-s3.mangoplate.com/added_restaurants/718886_1487202498449126.jpg?fit=around|512:512&crop=512:512;*,*&output-format=jpg&output-quality=80",127.038101,37.52594472
믹솔로지,서울특별시 강남구 도산대로58길 18 B1<br><br> 지번 서울시 강남구 청담동 22-14 B1,02-511-8214,"https://mp-seoul-image-production-s3.mangoplate.com/added_restaurants/565774_1465303532216143.jpg?fit=around|512:512&crop=512:512;*,*&output-format=jpg&output-quality=80",127.0411953,37.52205829
누앙스미묘한차이,서울특별시 강남구 압구정로72길 7<br><br> 지번 서울시 강남구 청담동 99-1,02-514-8077,"https://mp-seoul-image-production-s3.mangoplate.com/955529_1519563769228984.jpg?fit=around|512:512&crop=512:512;*,*&output-format=jpg&output-quality=80",127.0452932,37.52606139
피플더테라스,서울특별시 강남구 도산대로81길 13<br><br> 지번 서울시 강남구 청담동 118-19,02-511-8113,"https://mp-seoul-image-production-s3.mangoplate.com/423223/1901665_1620203798346_26841?fit=around|512:512&crop=512:512;*,*&output-format=jpg&output-quality=80",127.047571,37.52526103
디태치먼트,서울특별시 강남구 논현로151길 18<br><br> 지번 서울시 강남구 신사동 562-13,02-511-8782,"https://mp-seoul-image-production-s3.mangoplate.com/619788_1604712285263706.jpg?fit=around|512:512&crop=512:512;*,*&output-format=jpg&output-quality=80",127.0266159,37.52021218
데일리 청담,서울특별시 강남구 선릉로152길 21 영인빌딩<br><br> 지번 서울시 강남구 청담동 89-6 영인빌딩,0507-1331-8648,"https://mp-seoul-image-production-s3.mangoplate.com/2454903_1671512718940094.jpg?fit=around|512:512&crop=512:512;*,*&output-format=jpg&output-quality=80",127.041463,37.52449739
엠바고,서울특별시 강남구 선릉로146길 27-3 1F<br><br> 지번 서울시 강남구 청담동 21-14 1F,0507-1486-8026,"https://mp-seoul-image-production-s3.mangoplate.com/456875/1013171_1659410781761_42366?fit=around|512:512&crop=512:512;*,*&output-format=jpg&output-quality=80",127.0420356,37.5220707
비랩,서울특별시 강남구 강남대로98길 10 2F<br><br> 지번 서울시 강남구 역삼동 817-1 2F,010-2780-1245,"https://mp-seoul-image-production-s3.mangoplate.com/added_restaurants/52193_1488028817766385.jpg?fit=around|512:512&crop=512:512;*,*&output-format=jpg&output-quality=80",127.0275438,37.50058214
일곱잔,서울특별시 강남구 도산대로11길 5 2F 202호<br><br> 지번 서울시 강남구 신사동 514-9 2F 202호,0507-1326-8158,"https://mp-seoul-image-production-s3.mangoplate.com/879146_1654484309487005.jpg?fit=around|512:512&crop=512:512;*,*&output-format=jpg&output-quality=80",127.0222764,37.51784758
하우스오브알케미,서울특별시 강남구 압구정로 102 라까사호텔<br><br> 지번 서울시 강남구 신사동 527-4 라까사호텔,02-6190-0909,"https://mp-seoul-image-production-s3.mangoplate.com/540600_1505058690004764.jpg?fit=around|512:512&crop=512:512;*,*&output-format=jpg&output-quality=80",127.0196767,37.52236603
그늘,서울특별시 강남구 도산대로66길 13<br><br> 지번 서울시 강남구 청담동 18-23,02-540-1318,"https://mp-seoul-image-production-s3.mangoplate.com/2441259_1669773721275607.jpg?fit=around|512:512&crop=512:512;*,*&output-format=jpg&output-quality=80",127.0444181,37.5227336
셜록,서울특별시 강남구 도산대로83길 17 B1<br><br> 지번 서울시 강남구 청담동 117-38 B1,070-8885-0221,"https://mp-seoul-image-production-s3.mangoplate.com/185879/83_1420012135239?fit=around|512:512&crop=512:512;*,*&output-format=jpg&output-quality=80",127.0481737,37.52556298
비비노 알트로몬도,서울특별시 강남구 도산대로17길 39 예지빌딩 B1<br><br> 지번 서울시 강남구 신사동 544-26 예지빌딩 B1,0507-1375-3606,"https://mp-seoul-image-production-s3.mangoplate.com/468168/181795_1672147255483_1000004173?fit=around|512:512&crop=512:512;*,*&output-format=jpg&output-quality=80",127.0237251,37.52109848
로비라운지바,서울특별시 강남구 봉은사로 524 코엑스인터콘티넨탈서울 1F<br><br> 지번 서울시 강남구 삼성동 159 코엑스인터콘티넨탈서울 1F,02-3430-8603,"https://mp-seoul-image-production-s3.mangoplate.com/586336_1644892565936361.jpg?fit=around|512:512&crop=512:512;*,*&output-format=jpg&output-quality=80",127.0572509,37.51283208
더더치치즈앤모어,서울특별시 강남구 선릉로 660<br><br> 지번 서울시 강남구 삼성동 8-2,000-0000-0000,"https://mp-seoul-image-production-s3.mangoplate.com/688671_1675253054086893.jpg?fit=around|512:512&crop=512:512;*,*&output-format=jpg&output-quality=80",127.0423325,37.51555112
키퍼스,서울특별시 강남구 선릉로152길 18 B1<br><br> 지번 서울시 강남구 청담동 87-9 B1,02-549-9992,"https://mp-seoul-image-production-s3.mangoplate.com/1427_1500409319081144.jpg?fit=around|512:512&crop=512:512;*,*&output-format=jpg&output-quality=80",127.0409473,37.52405716
레 부르주아,서울특별시 강남구 강남대로152길 46 2F<br><br> 지번 서울시 강남구 신사동 537-4 2F,02-6085-5695,"https://mp-seoul-image-production-s3.mangoplate.com/431478/1888415_1650254398381_5490?fit=around|512:512&crop=512:512;*,*&output-format=jpg&output-quality=80",127.0229815,37.5181737
오늘와인한잔,서울특별시 강남구 강남대로156길 40<br><br> 지번 서울시 강남구 신사동 516-10,070-4098-7006,"https://mp-seoul-image-production-s3.mangoplate.com/26135_1596292644813061.jpg?fit=around|512:512&crop=512:512;*,*&output-format=jpg&output-quality=80",127.0223354,37.51889057
와인북카페,서울특별시 강남구 논현로149길 5<br><br> 지번 서울시 강남구 논현동 8-9,02-549-0490,"https://mp-seoul-image-production-s3.mangoplate.com/764_1428362284004?fit=around|512:512&crop=512:512;*,*&output-format=jpg&output-quality=80",127.0279992,37.51853707
머스크,서울특별시 강남구 언주로152길 14 로데오빌딩<br><br> 지번 서울시 강남구 신사동 630-21 로데오빌딩,02-543-6321,"https://mp-seoul-image-production-s3.mangoplate.com/840737_1671433641009367.jpg?fit=around|512:512&crop=512:512;*,*&output-format=jpg&output-quality=80",127.0348494,37.52262635
하이퍼서울,서울특별시 강남구 강남대로96길 15 B1<br><br> 지번 서울시 강남구 역삼동 817-18 B1,010-9891-9615,"https://mp-seoul-image-production-s3.mangoplate.com/427007/532309_1617375313250_103354?fit=around|512:512&crop=512:512;*,*&output-format=jpg&output-quality=80",127.0282271,37.50008733
코미디클럽,서울특별시 강남구 도산대로 507 B1<br><br> 지번 서울시 강남구 청담동 120-3 B1,02-543-1123,"https://mp-seoul-image-production-s3.mangoplate.com/357329/1123244_1535093196404_5912?fit=around|512:512&crop=512:512;*,*&output-format=jpg&output-quality=80",127.0485323,37.52475113
공베르,서울특별시 강남구 압구정로50길 28 113호<br><br> 지번 서울시 강남구 신사동 658 113호,02-517-0872,"https://mp-seoul-image-production-s3.mangoplate.com/522207_1635610663246230.jpg?fit=around|512:512&crop=512:512;*,*&output-format=jpg&output-quality=80",127.0373033,37.52664785
패리스비치,서울특별시 강남구 압구정로42길 36<br><br> 지번 서울시 강남구 신사동 635-14,02-3444-1905,"https://mp-seoul-image-production-s3.mangoplate.com/112634_1601901329705787.jpg?fit=around|512:512&crop=512:512;*,*&output-format=jpg&output-quality=80",127.0345302,37.52656986
시카고갤러리라운지,서울특별시 강남구 도산대로 205<br><br> 지번 서울시 강남구 신사동 587-1,1566-1263,"https://mp-seoul-image-production-s3.mangoplate.com/408438/1532365_1576487804888_9408?fit=around|512:512&crop=512:512;*,*&output-format=jpg&output-quality=80",127.0287797,37.52050351
곰방대 (휴업중),서울특별시 강남구 학동로6길 53 B1<br><br> 지번 서울시 강남구 논현동 158-35 B1,010-2862-1991,"https://mp-seoul-image-production-s3.mangoplate.com/sources/web/restaurants/410105/1678444_1589095278960?fit=around|512:512&crop=512:512;*,*&output-format=jpg&output-quality=80",127.0268084,37.50921619
휴일,서울특별시 강남구 역삼로3길 20-4 영광빌딩 B1<br><br> 지번 서울시 강남구 역삼동 830-9 영광빌딩 B1,02-568-9901,"https://mp-seoul-image-production-s3.mangoplate.com/705256_1640261420065496.jpg?fit=around|512:512&crop=512:512;*,*&output-format=jpg&output-quality=80",127.0314922,37.49491824
청담니은,서울특별시 강남구 도산대로70길 9 B<br><br> 지번 서울시 강남구 청담동 13 B,010-2786-5948,"https://mp-seoul-image-production-s3.mangoplate.com/1047892_1652398023280828.jpg?fit=around|512:512&crop=512:512;*,*&output-format=jpg&output-quality=80",127.0452468,37.52305395
한량블루스,서울특별시 서초구 서초대로75길 45 3F<br><br> 지번 서울시 서초구 서초동 1308-2 3F,02-533-5759,"https://mp-seoul-image-production-s3.mangoplate.com/32408_1663731662494916.jpg?fit=around|512:512&crop=512:512;*,*&output-format=jpg&output-quality=80",127.0245349,37.50149201
로얄라운지,서울특별시 강남구 논현로 709<br><br> 지번 서울시 강남구 논현동 36-8,02-514-1247,"https://mp-seoul-image-production-s3.mangoplate.com/281123_1579592009244933.jpg?fit=around|512:512&crop=512:512;*,*&output-format=jpg&output-quality=80",127.029788,37.51529077
So What,서울특별시 강남구 도산대로17길 22<br><br> 지번 서울시 강남구 신사동 560-6,010-7343-0212,"https://mp-seoul-image-production-s3.mangoplate.com/379609/449685_1554892071154_12092?fit=around|512:512&crop=512:512;*,*&output-format=jpg&output-quality=80",127.0246135,37.52004566
?E?E,서울특별시 강남구 학동로11길 20-7 B2<br><br> 지번 서울시 강남구 논현동 41-13 B2,0507-1429-9087,"https://mp-seoul-image-production-s3.mangoplate.com/344868_1635924156327998.jpg?fit=around|512:512&crop=512:512;*,*&output-format=jpg&output-quality=80",127.0251497,37.51390656
와인바 컨티뉴엄,서울특별시 강남구 테헤란로 231 EAST E205호<br><br> 지번 서울시 강남구 역삼동 676 EAST E205호,010-8296-7214,"https://mp-seoul-image-production-s3.mangoplate.com/475149/172778_1654493807126_140856?fit=around|512:512&crop=512:512;*,*&output-format=jpg&output-quality=80",127.0413565,37.50288135
보바베어,서울특별시 강남구 압구정로12길 13 2F<br><br> 지번 서울시 강남구 신사동 547-2 2F,02-3445-8585,"https://mp-seoul-image-production-s3.mangoplate.com/1663293_1655400246164489.jpg?fit=around|512:512&crop=512:512;*,*&output-format=jpg&output-quality=80",127.0227586,37.52308493
개츠비 바이리,서울특별시 강남구 도산대로55길 37 B1<br><br> 지번 서울시 강남구 청담동 84-14 B1,02-511-2606,"https://mp-seoul-image-production-s3.mangoplate.com/814662_1515121609109601.jpg?fit=around|512:512&crop=512:512;*,*&output-format=jpg&output-quality=80",127.0407164,37.52610801
샴,서울특별시 강남구 압구정로46길 5-6<br><br> 지번 서울시 강남구 신사동 660-17,070-4125-6413,"https://mp-seoul-image-production-s3.mangoplate.com/49585/218307_1461946872844_52113?fit=around|512:512&crop=512:512;*,*&output-format=jpg&output-quality=80",127.0372063,37.52798055
제너릭,서울특별시 강남구 삼성로 730 5F<br><br> 지번 서울시 강남구 청담동 63-12 5F,0507-1369-2382,"https://mp-seoul-image-production-s3.mangoplate.com/112634_1655197983204073.jpg?fit=around|512:512&crop=512:512;*,*&output-format=jpg&output-quality=80",127.0494759,37.52093715
뱀파이어 위켄드 와인바,서울특별시 강남구 삼성로140길 6 라파빌딩 B1<br><br> 지번 서울시 강남구 청담동 63-11 라파빌딩 B1,02-516-5571,"https://mp-seoul-image-production-s3.mangoplate.com/426996/1575751_1645714756558_37100?fit=around|512:512&crop=512:512;*,*&output-format=jpg&output-quality=80",127.04967,37.52104041
레브,서울특별시 강남구 언주로172길 54 1F<br><br> 지번 서울시 강남구 신사동 663 1F,070-4120-5500,"https://mp-seoul-image-production-s3.mangoplate.com/137616_1663332652262763.jpg?fit=around|512:512&crop=512:512;*,*&output-format=jpg&output-quality=80",127.0380325,37.52684323
애니오케이션 베이스먼트,서울특별시 강남구 도산대로51길 14 B2<br><br> 지번 서울시 강남구 신사동 654-12 B2,0507-1430-1471,"https://mp-seoul-image-production-s3.mangoplate.com/498094/26737_1668845325474_1000002801?fit=around|512:512&crop=512:512;*,*&output-format=jpg&output-quality=80",127.0380746,37.52405659
B28,서울특별시 강남구 도산대로55길 24 B1<br><br> 지번 서울시 강남구 청담동 88-2 B1,010-3402-2828,"https://mp-seoul-image-production-s3.mangoplate.com/1427_1512528994325380.jpg?fit=around|512:512&crop=512:512;*,*&output-format=jpg&output-quality=80",127.0407134,37.52507204
비노쿠스테이블,서울특별시 강남구 학동로44길 26<br><br> 지번 서울시 강남구 논현동 247-7,070-8807-2477,"https://mp-seoul-image-production-s3.mangoplate.com/454164/1134354_1633337358039_4819?fit=around|512:512&crop=512:512;*,*&output-format=jpg&output-quality=80",127.0374522,37.51411152
쿨쉽다이닝,서울특별시 강남구 도산대로25길 43 2F<br><br> 지번 서울시 강남구 신사동 553-25 2F,010-4695-5425,"https://mp-seoul-image-production-s3.mangoplate.com/2251569_1669687008698765.jpg?fit=around|512:512&crop=512:512;*,*&output-format=jpg&output-quality=80",127.025825,37.52232494
제이앤엘클래식바,서울특별시 강남구 도산대로45길 14<br><br> 지번 서울시 강남구 신사동 650-16,02-545-0890,"https://mp-seoul-image-production-s3.mangoplate.com/jxsjgguhqf3o4v.jpg?fit=around|512:512&crop=512:512;*,*&output-format=jpg&output-quality=80",127.0357558,37.52322587
싸우나 뮤직바,서울특별시 강남구 도산대로87길 11<br><br> 지번 서울시 강남구 청담동 122-30,02-3448-8897,"https://mp-seoul-image-production-s3.mangoplate.com/1476505_1656471478402394.jpg?fit=around|512:512&crop=512:512;*,*&output-format=jpg&output-quality=80",127.0498061,37.52541779
뉴욕바,서울특별시 강남구 강남대로84길 24-4 B1<br><br> 지번 서울시 강남구 역삼동 827-3 B1,0507-1368-8516,"https://mp-seoul-image-production-s3.mangoplate.com/485177/2231777_1658582459276_20108?fit=around|512:512&crop=512:512;*,*&output-format=jpg&output-quality=80",127.0305852,37.49672932
프레임 FRAME,서울특별시 강남구 도산대로11길 32 2F<br><br> 지번 서울시 강남구 신사동 535-8 2F,02-499-9731,"https://mp-seoul-image-production-s3.mangoplate.com/576573_1657778486434255.jpg?fit=around|512:512&crop=512:512;*,*&output-format=jpg&output-quality=80",127.0225755,37.51960403
와인주막차차,서울특별시 강남구 논현로94길 25-5 화가빌딩 2F<br><br> 지번 서울시 강남구 역삼동 670-17 화가빌딩 2F,02-554-0722,"https://mp-seoul-image-production-s3.mangoplate.com/13474_1497529987169748.jpg?fit=around|512:512&crop=512:512;*,*&output-format=jpg&output-quality=80",127.0380789,37.50321484
노퍼블릭 하우스,서울특별시 강남구 논현로159길 65 3F<br><br> 지번 서울시 강남구 신사동 545-1 3F,02-540-3714,"https://mp-seoul-image-production-s3.mangoplate.com/343979_1630143841708580.jpg?fit=around|512:512&crop=512:512;*,*&output-format=jpg&output-quality=80",127.0231651,37.5213861
베리블라썸,서울특별시 강남구 선릉로148길 21 1F<br><br> 지번 서울시 강남구 청담동 2-18 1F,02-3443-8855,"https://mp-seoul-image-production-s3.mangoplate.com/870195_1616949411622881.jpg?fit=around|512:512&crop=512:512;*,*&output-format=jpg&output-quality=80",127.0413568,37.52273939
이더웨이,서울특별시 강남구 강남대로124길 3-6 호은빌딩 2F<br><br> 지번 서울시 강남구 논현동 143-16 호은빌딩 2F,02-6952-0899,"https://mp-seoul-image-production-s3.mangoplate.com/1869921_1610958838923462.jpg?fit=around|512:512&crop=512:512;*,*&output-format=jpg&output-quality=80",127.0230468,37.50907553
육다시구,서울특별시 강남구 논현로149길 40<br><br> 지번 서울시 강남구 논현동 6-9,02-6080-4069,"https://mp-seoul-image-production-s3.mangoplate.com/457008/2169057_1643386420920_46632?fit=around|512:512&crop=512:512;*,*&output-format=jpg&output-quality=80",127.0252846,37.51774003
라이트룸,서울특별시 강남구 선릉로157길 20-5 신사빌딩 B1<br><br> 지번 서울시 강남구 신사동 663-7 신사빌딩 B1,0507-1353-8414,"https://mp-seoul-image-production-s3.mangoplate.com/842440_1665579635098396.jpg?fit=around|512:512&crop=512:512;*,*&output-format=jpg&output-quality=80",127.0382204,37.52654782
스몰치즈박스,서울특별시 강남구 논현로159길 25 102호<br><br> 지번 서울시 강남구 신사동 566-6 102호,0507-1326-6514,"https://mp-seoul-image-production-s3.mangoplate.com/1824671_1675011190693559.jpg?fit=around|512:512&crop=512:512;*,*&output-format=jpg&output-quality=80",127.0260672,37.52275196
원가바,서울특별시 강남구 강남대로94길 23 3F<br><br> 지번 서울시 강남구 역삼동 818-7 3F,02-557-3226,"https://mp-seoul-image-production-s3.mangoplate.com/285237/1042666_1542518583531_4307?fit=around|512:512&crop=512:512;*,*&output-format=jpg&output-quality=80",127.0291962,37.4997484
세이버리,서울특별시 강남구 테헤란로19길 21<br><br> 지번 서울시 강남구 역삼동 637-29,070-4115-8668,"https://mp-seoul-image-production-s3.mangoplate.com/279992/75i-wqoseycav9.jpg?fit=around|512:512&crop=512:512;*,*&output-format=jpg&output-quality=80",127.0330171,37.50142994
그레이트후카바,서울특별시 서초구 서초대로77길 37 서초동월드 401호<br><br> 지번 서울시 서초구 서초동 1308-10 서초동월드 401호,02-6247-0808,"https://mp-seoul-image-production-s3.mangoplate.com/378416/172778_1616024411049_95010?fit=around|512:512&crop=512:512;*,*&output-format=jpg&output-quality=80",127.0251043,37.50099462
서울살롱,서울특별시 강남구 언주로164길 41 B1<br><br> 지번 서울시 강남구 신사동 646-22 B1,010-9120-6706,"https://mp-seoul-image-production-s3.mangoplate.com/1026054_1630406123434035.jpg?fit=around|512:512&crop=512:512;*,*&output-format=jpg&output-quality=80",127.036933,37.52539774
오늘와인한잔,서울특별시 강남구 봉은사로1길 33 논현빌딩 1F<br><br> 지번 서울시 강남구 논현동 165-13 논현빌딩 1F,02-540-5156,"https://mp-seoul-image-production-s3.mangoplate.com/417066/1575751_1623774050931_23328?fit=around|512:512&crop=512:512;*,*&output-format=jpg&output-quality=80",127.0241209,37.50686425
미스터사이몬,서울특별시 강남구 선릉로155길 13-1 1F<br><br> 지번 서울시 강남구 신사동 655-7 1F,02-3445-6108,"https://mp-seoul-image-production-s3.mangoplate.com/218045/9xk7s3y-9sntnu.jpg?fit=around|512:512&crop=512:512;*,*&output-format=jpg&output-quality=80",127.0385433,37.52516837
바러프,서울특별시 강남구 선릉로155길 12 104호<br><br> 지번 서울시 강남구 신사동 657-1 104호,010-6463-3226,"https://mp-seoul-image-production-s3.mangoplate.com/475152/449685_1640948919197_60701?fit=around|512:512&crop=512:512;*,*&output-format=jpg&output-quality=80",127.0388195,37.5255967
나인오어,서울특별시 강남구 테헤란로104길 19<br><br> 지번 서울시 강남구 대치동 1000,000-0000-0000,"https://mp-seoul-image-production-s3.mangoplate.com/1163316_1678204259139314.jpg?fit=around|512:512&crop=512:512;*,*&output-format=jpg&output-quality=80",127.065436,37.50792331
파티피플,서울특별시 강남구 도산대로 429 1F<br><br> 지번 서울시 강남구 청담동 91-8 1F,0507-1332-5682,"https://mp-seoul-image-production-s3.mangoplate.com/510923/905836_1677744777429_1000002644?fit=around|512:512&crop=512:512;*,*&output-format=jpg&output-quality=80",127.0427862,37.5239738
Kompakt Record Bar,서울특별시 강남구 도산대로25길 46<br><br> 지번 서울시 강남구 신사동 566-1,010-2718-5866,"https://mp-seoul-image-production-s3.mangoplate.com/722502_1597365497121068.jpg?fit=around|512:512&crop=512:512;*,*&output-format=jpg&output-quality=80",127.0260073,37.52253123
파복스,서울특별시 강남구 논현로151길 17 1F<br><br> 지번 서울시 강남구 신사동 563-18 1F,02-3444-5684,"https://mp-seoul-image-production-s3.mangoplate.com/added_restaurants/479988_1471967344355712.jpg?fit=around|512:512&crop=512:512;*,*&output-format=jpg&output-quality=80",127.0268333,37.51997192
매니아스트리트,서울특별시 강남구 압구정로2길 57 1F<br><br> 지번 서울시 강남구 신사동 516-18 1F,010-3862-5516,"https://mp-seoul-image-production-s3.mangoplate.com/359539/840737_1606311532624_28367?fit=around|512:512&crop=512:512;*,*&output-format=jpg&output-quality=80",127.0214437,37.51826058
오디언스,서울특별시 강남구 도산대로45길 8-8 B1<br><br> 지번 서울시 강남구 신사동 651-9 B1,070-8802-0380,"https://mp-seoul-image-production-s3.mangoplate.com/467290/931513_1651253653031_12446?fit=around|512:512&crop=512:512;*,*&output-format=jpg&output-quality=80",127.0366137,37.52307559
비노아미쿠스,서울특별시 강남구 양재천로 191 105-1호<br><br> 지번 서울시 강남구 도곡동 454-5 105-1호,02-574-0988,"https://mp-seoul-image-production-s3.mangoplate.com/485713/1245199_1651828520792_67113?fit=around|512:512&crop=512:512;*,*&output-format=jpg&output-quality=80",127.0463615,37.48275127
까사델비노,서울특별시 강남구 선릉로162길 43<br><br> 지번 서울시 강남구 청담동 80-5,02-542-8003,"https://mp-seoul-image-production-s3.mangoplate.com/260/126_1447514011430_9355?fit=around|512:512&crop=512:512;*,*&output-format=jpg&output-quality=80",127.0440977,37.52635962
캐시바,서울특별시 강남구 봉은사로2길 10<br><br> 지번 서울시 강남구 역삼동 809-2,02-565-5465,"https://mp-seoul-image-production-s3.mangoplate.com/328993/434101_1499330416674_434101_1499180075250_729?fit=around|512:512&crop=512:512;*,*&output-format=jpg&output-quality=80",127.0254991,37.50394497
와인어클락,서울특별시 강남구 강남대로106길 14 오성빌딩 2F<br><br> 지번 서울시 강남구 역삼동 813-2 오성빌딩 2F,02-563-2200,"https://mp-seoul-image-production-s3.mangoplate.com/380664/1150196_1604982219631_49486?fit=around|512:512&crop=512:512;*,*&output-format=jpg&output-quality=80",127.0266552,37.50291604
트리하우스,서울특별시 강남구 삼성로104길 21<br><br> 지번 서울시 강남구 삼성동 148-13,02-556-2017,"https://mp-seoul-image-production-s3.mangoplate.com/added_restaurants/66561_1496143472568337.jpg?fit=around|512:512&crop=512:512;*,*&output-format=jpg&output-quality=80",127.0564238,37.51125473
레 끌레 드 크리스탈,서울특별시 강남구 압구정로79길 8 하나빌딩 2-3F<br><br> 지번 서울시 강남구 청담동 119-8 하나빌딩 2-3F,02-515-1198,"https://mp-seoul-image-production-s3.mangoplate.com/412315/1411507_1667487418240_19432?fit=around|512:512&crop=512:512;*,*&output-format=jpg&output-quality=80",127.0477605,37.52495975
라뷸,서울특별시 강남구 압구정로80길 24 B1<br><br> 지번 서울시 강남구 청담동 95-5 B1,02-511-5692,"https://mp-seoul-image-production-s3.mangoplate.com/348145/37227_1543326077247_8779?fit=around|512:512&crop=512:512;*,*&output-format=jpg&output-quality=80",127.044789,37.52485946
하프컷,서울특별시 강남구 삼성로75길 32 1F 101호<br><br> 지번 서울시 강남구 대치동 901-60 1F 101호,02-6053-1919,"https://mp-seoul-image-production-s3.mangoplate.com/602257_1675503382128472.jpg?fit=around|512:512&crop=512:512;*,*&output-format=jpg&output-quality=80",127.0557007,37.50303449
청담하우스바,서울특별시 강남구 선릉로152길 21<br><br> 지번 서울시 강남구 청담동 89-6,010-3241-7456,"https://mp-seoul-image-production-s3.mangoplate.com/384700/449685_1552896509860_10671?fit=around|512:512&crop=512:512;*,*&output-format=jpg&output-quality=80",127.041463,37.52449739
타임,서울특별시 강남구 선릉로 344<br><br> 지번 서울시 강남구 대치동 908,000-0000-0000,"https://mp-seoul-image-production-s3.mangoplate.com/275744/655610_1478685009625_9702?fit=around|512:512&crop=512:512;*,*&output-format=jpg&output-quality=80",127.0511905,37.50050642
록키,서울특별시 강남구 압구정로10길 30-7<br><br> 지번 서울시 강남구 신사동 524-21,000-0000-0000,"https://mp-seoul-image-production-s3.mangoplate.com/492053/2508090_1676551002863_1000001024?fit=around|512:512&crop=512:512;*,*&output-format=jpg&output-quality=80",127.0215563,37.52192485
에스653,서울특별시 강남구 도산대로51길 19<br><br> 지번 서울시 강남구 신사동 653-4,010-3700-1117,"https://mp-seoul-image-production-s3.mangoplate.com/826759_1501487270780498.jpg?fit=around|512:512&crop=512:512;*,*&output-format=jpg&output-quality=80",127.0376374,37.52442849
Esum,서울특별시 강남구 봉은사로4길 32 B1<br><br> 지번 서울시 강남구 역삼동 813-3 B1,010-9281-3828,"https://mp-seoul-image-production-s3.mangoplate.com/412971/1481179_1660444281412_1660444205236.jpg?fit=around|512:512&crop=512:512;*,*&output-format=jpg&output-quality=80",127.0266575,37.50276584
그랑아 2,서울특별시 강남구 봉은사로 130<br><br> 지번 서울시 강남구 역삼동 603,02-531-6868,"https://mp-seoul-image-production-s3.mangoplate.com/828430_1662236774582088.jpg?fit=around|512:512&crop=512:512;*,*&output-format=jpg&output-quality=80",127.0289194,37.50528056
영심이와세컨드바,서울특별시 강남구 테헤란로84길 9<br><br> 지번 서울시 강남구 대치동 943-8,02-555-9438,"https://mp-seoul-image-production-s3.mangoplate.com/52797/reirei_amza-yi.jpg?fit=around|512:512&crop=512:512;*,*&output-format=jpg&output-quality=80",127.0586651,37.5066041
SMT House Lobby Lounge,서울특별시 강남구 압구정로79길 58 1F<br><br> 지번 서울시 강남구 청담동 125-24 1F,02-515-9201,"https://mp-seoul-image-production-s3.mangoplate.com/449693_1607157316335208.jpg?fit=around|512:512&crop=512:512;*,*&output-format=jpg&output-quality=80",127.0520174,37.52538719
보야저,서울특별시 강남구 도산대로45길 10-2 B1<br><br> 지번 서울시 강남구 신사동 651-2 B1,070-8886-7799,"https://mp-seoul-image-production-s3.mangoplate.com/338150_1640960545644828.jpg?fit=around|512:512&crop=512:512;*,*&output-format=jpg&output-quality=80",127.0359372,37.52308535
원하프라운지펍,서울특별시 강남구 가로수길 19 B1<br><br> 지번 서울시 강남구 신사동 536-18 B1,0507-1332-3756,"https://mp-seoul-image-production-s3.mangoplate.com/2068598_1665971091511422.jpg?fit=around|512:512&crop=512:512;*,*&output-format=jpg&output-quality=80",127.0229987,37.51918859
오픈엔드,서울특별시 강남구 도산대로51길 14 3F<br><br> 지번 서울시 강남구 신사동 654-12 3F,0507-1302-5883,"https://mp-seoul-image-production-s3.mangoplate.com/502704/26737_1669815564596_1000002762?fit=around|512:512&crop=512:512;*,*&output-format=jpg&output-quality=80",127.0380746,37.52405659
디깅,서울특별시 강남구 테헤란로10길 14 B1<br><br> 지번 서울시 강남구 역삼동 823-8 B1,02-562-1014,"https://mp-seoul-image-production-s3.mangoplate.com/333427/860016_1506166096527_78483?fit=around|512:512&crop=512:512;*,*&output-format=jpg&output-quality=80",127.032336,37.49819984
도시문,서울특별시 강남구 남부순환로351길 4<br><br> 지번 서울시 강남구 도곡동 957,02-579-3002,"https://mp-seoul-image-production-s3.mangoplate.com/454903/1575751_1666371808877_47741?fit=around|512:512&crop=512:512;*,*&output-format=jpg&output-quality=80",127.034963,37.48518025
코르바니w,서울특별시 강남구 도산대로11길 31-7<br><br> 지번 서울시 강남구 신사동 517-25,0507-1442-8923,"https://mp-seoul-image-production-s3.mangoplate.com/598583_1631942176409502.jpg?fit=around|512:512&crop=512:512;*,*&output-format=jpg&output-quality=80",127.0218789,37.51918727
도쿄재즈,서울특별시 강남구 테헤란로87길 45 삼성빌딩<br><br> 지번 서울시 강남구 삼성동 153-44 삼성빌딩,02-3453-4472,"https://mp-seoul-image-production-s3.mangoplate.com/75997/52544_1436234638696.jpg?fit=around|512:512&crop=512:512;*,*&output-format=jpg&output-quality=80",127.057484,37.51064695
부쉬윅,서울특별시 강남구 선릉로153길 34 B1<br><br> 지번 서울시 강남구 신사동 647-23 B1,010-8482-8432,"https://mp-seoul-image-production-s3.mangoplate.com/27066_1626100356739516.jpg?fit=around|512:512&crop=512:512;*,*&output-format=jpg&output-quality=80",127.0366286,37.52483768
계곡,서울특별시 강남구 도산대로51길 36 B1<br><br> 지번 서울시 강남구 신사동 655 B1,070-8833-4705,"https://mp-seoul-image-production-s3.mangoplate.com/729747_1580649897128353.jpg?fit=around|512:512&crop=512:512;*,*&output-format=jpg&output-quality=80",127.0382042,37.52545689
아지트,서울특별시 강남구 도산대로46길 21 한진로즈힐아파트상가 B1<br><br> 지번 서울시 강남구 논현동 105-4 한진로즈힐아파트상가 B1,02-548-1121,"https://mp-seoul-image-production-s3.mangoplate.com/57286_1508241727471717.jpg?fit=around|512:512&crop=512:512;*,*&output-format=jpg&output-quality=80",127.0370934,37.52084213
솔레라,서울특별시 강남구 논현로26길 46-12 1F<br><br> 지번 서울시 강남구 도곡동 457-6 1F,02-3463-2021,"https://mp-seoul-image-production-s3.mangoplate.com/338150_1642768882271095.jpg?fit=around|512:512&crop=512:512;*,*&output-format=jpg&output-quality=80",127.046279,37.4833138
유어네이키드치즈,서울특별시 강남구 압구정로10길 35-1 4F<br><br> 지번 서울시 강남구 신사동 534-6 4F,0507-1330-9036,"https://mp-seoul-image-production-s3.mangoplate.com/465679/26737_1667201832171_1000002236?fit=around|512:512&crop=512:512;*,*&output-format=jpg&output-quality=80",127.0223608,37.52132958
마토,서울특별시 강남구 선릉로146길 23 4F<br><br> 지번 서울시 강남구 청담동 21-21 4F,02-543-0488,"https://mp-seoul-image-production-s3.mangoplate.com/190022_1422753079686?fit=around|512:512&crop=512:512;*,*&output-format=jpg&output-quality=80",127.0416914,37.52204857
설천와인하우스,서울특별시 강남구 논현로24길 9 1F<br><br> 지번 서울시 강남구 도곡동 449-7 1F,0507-1443-4679,"https://mp-seoul-image-production-s3.mangoplate.com/886722_1650359755038211.jpg?fit=around|512:512&crop=512:512;*,*&output-format=jpg&output-quality=80",127.0438842,37.4815836
더부즈,서울특별시 강남구 도산대로85길 13 B1<br><br> 지번 서울시 강남구 청담동 121-30 B1,02-547-8002,"https://mp-seoul-image-production-s3.mangoplate.com/390964/1042666_1582007823008_29380?fit=around|512:512&crop=512:512;*,*&output-format=jpg&output-quality=80",127.0489544,37.52548311
문빔,서울특별시 강남구 압구정로2길 35<br><br> 지번 서울시 강남구 신사동 519-1,070-8865-9225,"https://mp-seoul-image-production-s3.mangoplate.com/399041/2169057_1645803863216_36008?fit=around|512:512&crop=512:512;*,*&output-format=jpg&output-quality=80",127.0205939,37.51956151
바제라늄,서울특별시 강남구 도산대로55길 37 1F<br><br> 지번 서울시 강남구 청담동 84-14 1F,02-3445-1101,"https://mp-seoul-image-production-s3.mangoplate.com/475206/172778_1650941754728_146338?fit=around|512:512&crop=512:512;*,*&output-format=jpg&output-quality=80",127.0407164,37.52610801
비크 이 뮈르달,서울특별시 강남구 봉은사로 123 리체힐신논현오피스텔 F101호<br><br> 지번 서울시 강남구 논현동 202-9 리체힐신논현오피스텔 F101호,0507-1365-7234,"https://mp-seoul-image-production-s3.mangoplate.com/2227850_1655188190334652.jpg?fit=around|512:512&crop=512:512;*,*&output-format=jpg&output-quality=80",127.0270463,37.50558031
볼륨엘피바,서울특별시 강남구 선릉로157길 14<br><br> 지번 서울시 강남구 신사동 663-23,02-515-5544,"https://mp-seoul-image-production-s3.mangoplate.com/528080_1676646663080687.jpg?fit=around|512:512&crop=512:512;*,*&output-format=jpg&output-quality=80",127.0388275,37.52614893
배산임수,서울특별시 강남구 영동대로106길 9 5F<br><br> 지번 서울시 강남구 삼성동 160-22 5F,02-555-0655,"https://mp-seoul-image-production-s3.mangoplate.com/638032_1662772105259168.jpg?fit=around|512:512&crop=512:512;*,*&output-format=jpg&output-quality=80",127.0618465,37.5135084
까치양조장,서울특별시 강남구 봉은사로4길 23 2-3F<br><br> 지번 서울시 강남구 역삼동 811-13 2-3F,02-558-9933,"https://mp-seoul-image-production-s3.mangoplate.com/398566/752493_1633017634394_44157?fit=around|512:512&crop=512:512;*,*&output-format=jpg&output-quality=80",127.0267098,37.50330346
블랙바 스테이크하우스,서울특별시 강남구 테헤란로 610 B1<br><br> 지번 서울시 강남구 대치동 995-16 B1,02-6012-7429,"https://mp-seoul-image-production-s3.mangoplate.com/229998_1650526129911231.jpg?fit=around|512:512&crop=512:512;*,*&output-format=jpg&output-quality=80",127.0645418,37.50882291
시그넷드링킹앤더슨,서울특별시 강남구 언주로 118<br><br> 지번 서울시 강남구 도곡동 467-24,02-576-6891,"https://mp-seoul-image-production-s3.mangoplate.com/added_restaurants/65460_1465399634728796.jpg?fit=around|512:512&crop=512:512;*,*&output-format=jpg&output-quality=80",127.0518555,37.48691597
버틀러,서울특별시 강남구 논현로151길 41 상운빌딩 102호<br><br> 지번 서울시 강남구 신사동 561 상운빌딩 102호,02-541-9587,"https://mp-seoul-image-production-s3.mangoplate.com/1851484_1618054202516421.jpg?fit=around|512:512&crop=512:512;*,*&output-format=jpg&output-quality=80",127.0248136,37.51960349
피헨,서울특별시 강남구 도산대로30길 39<br><br> 지번 서울시 강남구 논현동 75,02-543-7187,"https://mp-seoul-image-production-s3.mangoplate.com/765226_1663912937196249.jpg?fit=around|512:512&crop=512:512;*,*&output-format=jpg&output-quality=80",127.030702,37.51744511
라운지칠,서울특별시 강남구 강남대로122길 14 B1<br><br> 지번 서울시 강남구 논현동 166-2 B1,02-540-3409,"https://mp-seoul-image-production-s3.mangoplate.com/901187_1517872789496205.jpg?fit=around|512:512&crop=512:512;*,*&output-format=jpg&output-quality=80",127.0243414,37.50783468
